ONEWEB-0456             
1 51646U 22012AA  24018.55922584 -.00000609  00000+0 -17820-2 0  9990
2 51646  87.8890 211.1731 0001828  85.8373 274.2964 13.10372855 94016
ONEWEB-0457             
1 51647U 22012AB  24018.61284448  .00000164  00000+0  43261-3 0  9991
2 51647  87.8895 211.1715 0001043  87.9301 272.1945 13.10367779 94023
ONEWEB-0458             
1 51648U 22012AC  24018.55758544 -.00000633  00000+0 -18508-2 0  9996
2 51648  87.8899 211.1964 0001441  99.2388 260.8902 13.10369886 93978
ONEWEB-0461             
1 51649U 22012AD  24018.52117622  .00000061  00000+0  12458-3 0  9992
2 51649  87.9213 180.9819 0001361  92.6658 267.4629 13.17647748 97910
ONEWEB-0463             
1 51650U 22012AE  24018.50378073  .00000046  00000+0  85442-4 0  9998
2 51650  87.9216 181.0256 0001330  94.5195 265.6088 13.17650566 97691
ONEWEB-0464             
1 51651U 22012AF  24018.55433747 -.00000585  00000+0 -17113-2 0  9992
2 51651  87.8896 211.1853 0001906  93.1452 266.9893 13.10372685 93996
ONEWEB-0468             
1 51652U 22012AG  24018.56083133 -.00000578  00000+0 -16918-2 0  9998
2 51652  87.8900 211.1774 0001567  92.1457 267.9849 13.10372623 93974
ONEWEB-0473             
1 51653U 22012AH  24018.62257517 -.00000224  00000+0 -67714-3 0  9994
2 51653  87.8897 211.1690 0001558  95.9128 264.2177 13.10372342 93986
